[{"OBJECT_NAME":"STARLINK-32289","OBJECT_ID":"2024-152T","EPOCH":"2026-03-09T22:14:32.231616","MEAN_MOTION":15.30189101,"ECCENTRICITY":0.00011658,"INCLINATION":53.1594,"RA_OF_ASC_NODE":267.5765,"ARG_OF_PERICENTER":93.5355,"MEAN_ANOMALY":266.5779,"EPHEMERIS_TYPE":0,"CLASSIFICATION_TYPE":"U","NORAD_CAT_ID":60737,"ELEMENT_SET_NO":999,"REV_AT_EPOCH":8688,"BSTAR":1.330219e-5,"MEAN_MOTION_DOT":3.5e-7,"MEAN_MOTION_DDOT":0},{"OBJECT_NAME":"GEOSCAN 3 (RS92S3)","OBJECT_ID":"2025-155T","EPOCH":"2026-03-09T22:52:10.587648","MEAN_MOTION":15.31696739,"ECCENTRICITY":0.00068078,"INCLINATION":97.4455,"RA_OF_ASC_NODE":37.9971,"ARG_OF_PERICENTER":154.1387,"MEAN_ANOMALY":206.0196,"EPHEMERIS_TYPE":0,"CLASSIFICATION_TYPE":"U","NORAD_CAT_ID":64893,"ELEMENT_SET_NO":999,"REV_AT_EPOCH":6564,"BSTAR":0.00078414081,"MEAN_MOTION_DOT":0.00023985,"MEAN_MOTION_DDOT":0}]
